HST                     
1 20580U 90037B   24014.23663466  .00007391  00000+0  36971-3 0  9999
2 20580  28.4696 301.4655 0002527 145.9250 341.4792 15.15533036653486
